[{"OBJECT_NAME":"PANDORA","OBJECT_ID":"2026-004AJ","EPOCH":"2026-03-09T23:33:39.015648","MEAN_MOTION":14.87872688,"ECCENTRICITY":0.0006827,"INCLINATION":97.8034,"RA_OF_ASC_NODE":69.2013,"ARG_OF_PERICENTER":94.0251,"MEAN_ANOMALY":266.1746,"EPHEMERIS_TYPE":0,"CLASSIFICATION_TYPE":"U","NORAD_CAT_ID":67395,"ELEMENT_SET_NO":999,"REV_AT_EPOCH":852,"BSTAR":0.00015125074,"MEAN_MOTION_DOT":1.33e-5,"MEAN_MOTION_DDOT":0},{"OBJECT_NAME":"FENGYUN 1C DEB","OBJECT_ID":"1999-025AHJ","EPOCH":"2026-03-09T18:03:49.415328","MEAN_MOTION":14.96033857,"ECCENTRICITY":0.01248359,"INCLINATION":98.7826,"RA_OF_ASC_NODE":350.0057,"ARG_OF_PERICENTER":174.7814,"MEAN_ANOMALY":185.4738,"EPHEMERIS_TYPE":0,"CLASSIFICATION_TYPE":"U","NORAD_CAT_ID":30496,"ELEMENT_SET_NO":999,"REV_AT_EPOCH":2444,"BSTAR":0.00050780955,"MEAN_MOTION_DOT":6.595e-5,"MEAN_MOTION_DDOT":0}]
